start=new Date('2021-10-05T00:00:00.000Z').valueOf();
sats=[{"ELEMENT_SET_NO":"999","CENTER_NAME":"EARTH","TLE_LINE1":"1 47899U 21021AR  21277.82575541  .00000239  00000-0  34964-4 0  9993","OBJECT_ID":"2021-021AR","INCLINATION":"53.0565","SITE":"AFETR","EPHEMERIS_TYPE":"0","COUNTRY_CODE":"US","BSTAR":"0.00003496400000","FILE":"3144803","DECAY_DATE":null,"OBJECT_NAME":"STARLINK-2359","MEAN_ANOMALY":"241.6902","EPOCH":"2021-10-04T19:49:05.267424","NORAD_CAT_ID":"47899","TLE_LINE2":"2 47899  53.0565 319.9967 0000904 118.4179 241.6902 15.06383645 32641","PERIOD":"95.593","GP_ID":"186226341","MEAN_MOTION_DOT":"0.00000239","MEAN_ELEMENT_THEORY":"SGP4","REV_AT_EPOCH":"3264","MEAN_MOTION_DDOT":"0.0000000000000","OBJECT_TYPE":"PAYLOAD","RA_OF_ASC_NODE":"319.9967","REF_FRAME":"TEME","ARG_OF_PERICENTER":"118.4179","MEAN_MOTION":"15.06383645","CLASSIFICATION_TYPE":"U","SEMIMAJOR_AXIS":"6925.399","RCS_SIZE":"LARGE","ECCENTRICITY":"0.00009040","LAUNCH_DATE":"2021-03-14","PERIAPSIS":"546.638","APOAPSIS":"547.890","TIME_SYSTEM":"UTC"},{"TLE_LINE1":"1 47900U 21021AS  21277.84968895 -.00001128  00000-0 -56889-4 0  9996","EPHEMERIS_TYPE":"0","SITE":"AFETR","INCLINATION":"53.0567","OBJECT_ID":"2021-021AS","ELEMENT_SET_NO":"999","CENTER_NAME":"EARTH","MEAN_ANOMALY":"232.0856","OBJECT_NAME":"STARLINK-2360","DECAY_DATE":null,"EPOCH":"2021-10-04T20:23:33.125280","COUNTRY_CODE":"US","FILE":"3144803","BSTAR":"-0.00005688900000","OBJECT_TYPE":"PAYLOAD","MEAN_MOTION_DDOT":"0.0000000000000","CLASSIFICATION_TYPE":"U","MEAN_MOTION":"15.06389937","ARG_OF_PERICENTER":"128.0218","REF_FRAME":"TEME","RA_OF_ASC_NODE":"329.8906","MEAN_MOTION_DOT":"-0.00001128","GP_ID":"186225092","TLE_LINE2":"2 47900  53.0567 329.8906 0000936 128.0218 232.0856 15.06389937 32502","PERIOD":"95.593","NORAD_CAT_ID":"47900","REV_AT_EPOCH":"3250","MEAN_ELEMENT_THEORY":"SGP4","PERIAPSIS":"546.596","LAUNCH_DATE":"2021-03-14","ECCENTRICITY":"0.00009360","TIME_SYSTEM":"UTC","APOAPSIS":"547.893","SEMIMAJOR_AXIS":"6925.379","RCS_SIZE":"LARGE"},{"REV_AT_EPOCH":"3210","MEAN_ELEMENT_THEORY":"SGP4","MEAN_MOTION_DOT":"-0.00001045","GP_ID":"186194830","TLE_LINE2":"2 47901  53.0487 321.2849 0000811 118.6083 241.4988 15.06390884 32102","PERIOD":"95.593","NORAD_CAT_ID":"47901","CLASSIFICATION_TYPE":"U","MEAN_MOTION":"15.06390884","ARG_OF_PERICENTER":"118.6083","REF_FRAME":"TEME","RA_OF_ASC_NODE":"321.2849","OBJECT_TYPE":"PAYLOAD","MEAN_MOTION_DDOT":"0.0000000000000","RCS_SIZE":"LARGE","SEMIMAJOR_AXIS":"6925.376","TIME_SYSTEM":"UTC","APOAPSIS":"547.803","LAUNCH_DATE":"2021-03-14","ECCENTRICITY":"0.00008110","PERIAPSIS":"546.680","CENTER_NAME":"EARTH","ELEMENT_SET_NO":"999","EPHEMERIS_TYPE":"0","SITE":"AFETR","INCLINATION":"53.0487","OBJECT_ID":"2021-021AT","TLE_LINE1":"1 47901U 21021AT  21277.54098778 -.00001045  00000-0 -51274-4 0  9999","FILE":"3144415","BSTAR":"-0.00005127400000","COUNTRY_CODE":"US","EPOCH":"2021-10-04T12:59:01.344192","MEAN_ANOMALY":"241.4988","OBJECT_NAME":"STARLINK-2361","DECAY_DATE":null},{"CENTER_NAME":"EARTH","ELEMENT_SET_NO":"999","SITE":"AFETR","EPHEMERIS_TYPE":"0","INCLINATION":"53.0563","OBJECT_ID":"2021-021AU","TLE_LINE1":"1 47902U 21021AU  21277.59908420  .00023108  00000-0  15703-2 0  9996","FILE":"3144803","BSTAR":"0.00157030000000","COUNTRY_CODE":"US","EPOCH":"2021-10-04T14:22:40.874880","MEAN_ANOMALY":"275.3954","OBJECT_NAME":"STARLINK-2362","DECAY_DATE":null,"MEAN_ELEMENT_THEORY":"SGP4","REV_AT_EPOCH":"3242","MEAN_MOTION_DOT":"0.00023108","GP_ID":"186226094","TLE_LINE2":"2 47902  53.0563 341.0067 0001743  84.7234 275.3954 15.06276898 32428","PERIOD":"95.600","NORAD_CAT_ID":"47902","CLASSIFICATION_TYPE":"U","ARG_OF_PERICENTER":"84.7234","MEAN_MOTION":"15.06276898","REF_FRAME":"TEME","RA_OF_ASC_NODE":"341.0067","OBJECT_TYPE":"PAYLOAD","MEAN_MOTION_DDOT":"0.0000000000000","RCS_SIZE":"LARGE","SEMIMAJOR_AXIS":"6925.726","TIME_SYSTEM":"UTC","APOAPSIS":"548.798","PERIAPSIS":"546.384","LAUNCH_DATE":"2021-03-14","ECCENTRICITY":"0.00017430"},{"FILE":"3144803","BSTAR":"0.00000194510000","COUNTRY_CODE":"US","EPOCH":"2021-10-04T19:43:47.184960","MEAN_ANOMALY":"262.4117","DECAY_DATE":null,"OBJECT_NAME":"STARLINK-2363","CENTER_NAME":"EARTH","ELEMENT_SET_NO":"999","EPHEMERIS_TYPE":"0","SITE":"AFETR","INCLINATION":"53.0568","OBJECT_ID":"2021-021AV","TLE_LINE1":"1 47903U 21021AV  21277.82207390 -.00000252  00000-0  19451-5 0  9994","RCS_SIZE":"LARGE","SEMIMAJOR_AXIS":"6925.389","TIME_SYSTEM":"UTC","APOAPSIS":"547.670","LAUNCH_DATE":"2021-03-14","ECCENTRICITY":"0.00006020","PERIAPSIS":"546.837","MEAN_ELEMENT_THEORY":"SGP4","REV_AT_EPOCH":"3297","MEAN_MOTION_DOT":"-0.00000252","GP_ID":"186226841","PERIOD":"95.593","TLE_LINE2":"2 47903  53.0568 320.0154 0000602  97.6940 262.4117 15.06386952 32979","NORAD_CAT_ID":"47903","CLASSIFICATION_TYPE":"U","ARG_OF_PERICENTER":"97.6940","MEAN_MOTION":"15.06386952","REF_FRAME":"TEME","RA_OF_ASC_NODE":"320.0154","OBJECT_TYPE":"PAYLOAD","MEAN_MOTION_DDOT":"0.0000000000000"},{"SEMIMAJOR_AXIS":"6925.373","RCS_SIZE":"LARGE","ECCENTRICITY":"0.00009400","LAUNCH_DATE":"2021-03-14","PERIAPSIS":"546.587","APOAPSIS":"547.889","TIME_SYSTEM":"UTC","PERIOD":"95.593","TLE_LINE2":"2 47904  53.0555 320.0268 0000940 106.2907 253.8185 15.06392095 32612","NORAD_CAT_ID":"47904","MEAN_MOTION_DOT":"-0.00001402","GP_ID":"186225592","MEAN_ELEMENT_THEORY":"SGP4","REV_AT_EPOCH":"3261","MEAN_MOTION_DDOT":"0.0000000000000","OBJECT_TYPE":"PAYLOAD","REF_FRAME":"TEME","RA_OF_ASC_NODE":"320.0268","CLASSIFICATION_TYPE":"U","MEAN_MOTION":"15.06392095","ARG_OF_PERICENTER":"106.2907","COUNTRY_CODE":"US","BSTAR":"-0.00007526700000","FILE":"3144803","DECAY_DATE":null,"OBJECT_NAME":"STARLINK-2364","MEAN_ANOMALY":"253.8185","EPOCH":"2021-10-04T19:38:27.809952","ELEMENT_SET_NO":"999","CENTER_NAME":"EARTH","TLE_LINE1":"1 47904U 21021AW  21277.81837743 -.00001402  00000-0 -75267-4 0  9990","INCLINATION":"53.0555","OBJECT_ID":"2021-021AW","SITE":"AFETR","EPHEMERIS_TYPE":"0"},{"MEAN_ELEMENT_THEORY":"SGP4","REV_AT_EPOCH":"3274","GP_ID":"186225343","MEAN_MOTION_DOT":"-0.00000270","NORAD_CAT_ID":"47905","TLE_LINE2":"2 47905  53.0563 320.0446 0000919 113.9349 246.1736 15.06385377 32747","PERIOD":"95.593","MEAN_MOTION":"15.06385377","ARG_OF_PERICENTER":"113.9349","CLASSIFICATION_TYPE":"U","RA_OF_ASC_NODE":"320.0446","REF_FRAME":"TEME","OBJECT_TYPE":"PAYLOAD","MEAN_MOTION_DDOT":"0.0000000000000","RCS_SIZE":"LARGE","SEMIMAJOR_AXIS":"6925.393","TIME_SYSTEM":"UTC","APOAPSIS":"547.895","PERIAPSIS":"546.622","LAUNCH_DATE":"2021-03-14","ECCENTRICITY":"0.00009190","CENTER_NAME":"EARTH","ELEMENT_SET_NO":"999","EPHEMERIS_TYPE":"0","SITE":"AFETR","OBJECT_ID":"2021-021AX","INCLINATION":"53.0563","TLE_LINE1":"1 47905U 21021AX  21277.81470473 -.00000270  00000-0  71937-6 0  9997","FILE":"3144803","BSTAR":"0.00000071937000","COUNTRY_CODE":"US","EPOCH":"2021-10-04T19:33:10.488672","MEAN_ANOMALY":"246.1736","OBJECT_NAME":"STARLINK-2365","DECAY_DATE":null},{"FILE":"3144803","BSTAR":"0.00020533000000","COUNTRY_CODE":"US","EPOCH":"2021-10-04T15:44:59.006400","MEAN_ANOMALY":"31.0604","DECAY_DATE":null,"OBJECT_NAME":"STARLINK-2366","CENTER_NAME":"EARTH","ELEMENT_SET_NO":"999","SITE":"AFETR","EPHEMERIS_TYPE":"0","OBJECT_ID":"2021-021AY","INCLINATION":"53.0517","TLE_LINE1":"1 47906U 21021AY  21277.65623850  .00026282  00000-0  20533-3 0  9992","RCS_SIZE":"LARGE","SEMIMAJOR_AXIS":"6732.864","TIME_SYSTEM":"UTC","APOAPSIS":"359.997","LAUNCH_DATE":"2021-03-14","PERIAPSIS":"349.461","ECCENTRICITY":"0.00078240","MEAN_ELEMENT_THEORY":"SGP4","REV_AT_EPOCH":"3316","GP_ID":"186226594","MEAN_MOTION_DOT":"0.00026282","NORAD_CAT_ID":"47906","PERIOD":"91.635","TLE_LINE2":"2 47906  53.0517 288.7666 0007824 328.9950  31.0604 15.71458778 33169","ARG_OF_PERICENTER":"328.9950","MEAN_MOTION":"15.71458778","CLASSIFICATION_TYPE":"U","RA_OF_ASC_NODE":"288.7666","REF_FRAME":"TEME","OBJECT_TYPE":"PAYLOAD","MEAN_MOTION_DDOT":"0.0000000000000"},{"SEMIMAJOR_AXIS":"6925.376","RCS_SIZE":"LARGE","LAUNCH_DATE":"2021-03-14","ECCENTRICITY":"0.00012620","PERIAPSIS":"546.368","TIME_SYSTEM":"UTC","APOAPSIS":"548.115","MEAN_MOTION_DOT":"0.00000075","GP_ID":"186195382","TLE_LINE2":"2 47907  53.0582 341.1970 0001262 110.8693 249.2431 15.06390887 31833","PERIOD":"95.593","NORAD_CAT_ID":"47907","MEAN_ELEMENT_THEORY":"SGP4","REV_AT_EPOCH":"3183","OBJECT_TYPE":"PAYLOAD","MEAN_MOTION_DDOT":"0.0000000000000","CLASSIFICATION_TYPE":"U","ARG_OF_PERICENTER":"110.8693","MEAN_MOTION":"15.06390887","REF_FRAME":"TEME","RA_OF_ASC_NODE":"341.1970","COUNTRY_CODE":"US","FILE":"3144443","BSTAR":"0.00002394900000","MEAN_ANOMALY":"249.2431","OBJECT_NAME":"STARLINK-2367","DECAY_DATE":null,"EPOCH":"2021-10-04T13:24:15.768576","ELEMENT_SET_NO":"999","CENTER_NAME":"EARTH","TLE_LINE1":"1 47907U 21021AZ  21277.55851584  .00000075  00000-0  23949-4 0  9996","EPHEMERIS_TYPE":"0","SITE":"AFETR","INCLINATION":"53.0582","OBJECT_ID":"2021-021AZ"},{"SEMIMAJOR_AXIS":"6925.370","RCS_SIZE":"LARGE","ECCENTRICITY":"0.00012410","LAUNCH_DATE":"2021-03-14","PERIAPSIS":"546.375","APOAPSIS":"548.094","TIME_SYSTEM":"UTC","NORAD_CAT_ID":"47908","TLE_LINE2":"2 47908  53.0581 340.5658 0001241 109.6751 250.4372 15.06393076 32323","PERIOD":"95.593","GP_ID":"186225093","MEAN_MOTION_DOT":"-0.00000126","MEAN_ELEMENT_THEORY":"SGP4","REV_AT_EPOCH":"3232","MEAN_MOTION_DDOT":"0.0000000000000","OBJECT_TYPE":"PAYLOAD","RA_OF_ASC_NODE":"340.5658","REF_FRAME":"TEME","ARG_OF_PERICENTER":"109.6751","MEAN_MOTION":"15.06393076","CLASSIFICATION_TYPE":"U","COUNTRY_CODE":"US","BSTAR":"0.00001042000000","FILE":"3144803","DECAY_DATE":null,"OBJECT_NAME":"STARLINK-2368","MEAN_ANOMALY":"250.4372","EPOCH":"2021-10-04T16:45:57.122784","ELEMENT_SET_NO":"999","CENTER_NAME":"EARTH","TLE_LINE1":"1 47908U 21021BA  21277.69857781 -.00000126  00000-0  10420-4 0  9995","OBJECT_ID":"2021-021BA","INCLINATION":"53.0581","EPHEMERIS_TYPE":"0","SITE":"AFETR"}];
